SEEDS II (CO-66)        
1 32791U 08021J   26068.92109284  .00023758  00000+0  84213-3 0  9995
2 32791  97.7519  62.3611 0001448 359.2618   0.8619 15.29097235972108
STARLINK-31258          
1 58829U 24017D   26068.67423780  .00001659  00000+0  68065-4 0  9994
2 58829  53.1604 204.4049 0001010  84.1447 275.9668 15.30231444120054
